{"type": "FeatureCollection", "features": [ {"type": "Feature", "properties": {"norad_id": 66645, "name": "SHENZHOU-22", "group": "last-30-days", "lat": 27.194987757492612, "lon": -38.235397200015065, "alt_km": 386.5116008024861, "timestamp": "2025-12-27T15:27:09.829025+00:00", "meta": {"OBJECT_NAME": "SHENZHOU-22", "OBJECT_ID": "2025-272A", "EPOCH": "2025-12-27T06:02:45.823200", "MEAN_MOTION": 15.59750285, "ECCENTRICITY": 0.0008745, "INCLINATION": 41.4675, "RA_OF_ASC_NODE": 288.5662, "ARG_OF_PERICENTER": 157.7703, "MEAN_ANOMALY": 202.3516, "EPHEMERIS_TYPE": 0, "CLASSIFICATION_TYPE": "U", "NORAD_CAT_ID": 66645, "ELEMENT_SET_NO": 999, "REV_AT_EPOCH": 26598, "BSTAR": 0.00024488937, "MEAN_MOTION_DOT": 0.0001992, "MEAN_MOTION_DDOT": 0}, "tle": {"line1": "1 66645U 25272A   25361.25191925  .00019920  00000+0  24489-3 0  9996", "line2": "2 66645  41.4675 288.5662 0008745 157.7703 202.3516 15.59750285265983"}}, "geometry": {"type": "Point", "coordinates": [-38.235397200015065, 27.194987757492612]}}, {"type": "Feature", "properties": {"norad_id": 66647, "name": "COSMOS 2597 (RODNIK-S 22)", "group": "last-30-days", "lat": 65.66482505073563, "lon": 80.26022187924104, "alt_km": 1496.3346921503835, "timestamp": "2025-12-27T15:27:09.829036+00:00", "meta": {"OBJECT_NAME": "COSMOS 2597 (RODNIK-S 22)", "OBJECT_ID": "2025-273A", "EPOCH": "2025-12-26T19:30:39.240288", "MEAN_MOTION": 12.41952314, "ECCENTRICITY": 0.00075998, "INCLINATION": 82.4993, "RA_OF_ASC_NODE": 277.7108, "ARG_OF_PERICENTER": 252.7737, "MEAN_ANOMALY": 107.251, "EPHEMERIS_TYPE": 0, "CLASSIFICATION_TYPE": "U", "NORAD_CAT_ID": 66647, "ELEMENT_SET_NO": 999, "REV_AT_EPOCH": 388, "BSTAR": 9.9658941e-05, "MEAN_MOTION_DOT": 2.3e-07, "MEAN_MOTION_DDOT": 0}, "tle": {"line1": "1 66647U 25273A   25360.81295417  .00000023  00000+0  99659-4 0  9997", "line2": "2 66647  82.4993 277.7108 0007599 252.7737 107.2510 12.41952314  3888"}}, "geometry": {"type": "Point", "coordinates": [80.26022187924104, 65.66482505073563]}}, {"type": "Feature", "properties": {"norad_id": 66648, "name": "COSMOS 2598 (RODNIK-S 23)", "group": "last-30-days", "lat": -37.35884423667653, "lon": 102.94688718925934, "alt_km": 1492.8910659670455, "timestamp": "2025-12-27T15:27:09.829046+00:00", "meta": {"OBJECT_NAME": "COSMOS 2598 (RODNIK-S 23)", "OBJECT_ID": "2025-273B", "EPOCH": "2025-12-27T06:33:36.081792", "MEAN_MOTION": 12.43233669, "ECCENTRICITY": 0.00082625, "INCLINATION": 82.5032, "RA_OF_ASC_NODE": 277.4084, "ARG_OF_PERICENTER": 202.2573, "MEAN_ANOMALY": 157.815, "EPHEMERIS_TYPE": 0, "CLASSIFICATION_TYPE": "U", "NORAD_CAT_ID": 66648, "ELEMENT_SET_NO": 999, "REV_AT_EPOCH": 394, "BSTAR": 5.6228556e-05, "MEAN_MOTION_DOT": 1.8e-07, "MEAN_MOTION_DDOT": 0}, "tle": {"line1": "1 66648U 25273B   25361.27333428  .00000018  00000+0  56229-4 0  9994", "line2": "2 66648  82.5032 277.4084 0008262 202.2573 157.8150 12.43233669  3945"}}, "geometry": {"type": "Point", "coordinates": [102.94688718925934, -37.35884423667653]}}, {"type": "Feature", "properties": {"norad_id": 66649, "name": "COSMOS 2599 (RODNIK-S 24)", "group": "last-30-days", "lat": 51.01744635656663, "lon": -73.40540767768928, "alt_km": 1501.8908662299855, "timestamp": "2025-12-27T15:27:09.829057+00:00", "meta": {"OBJECT_NAME": "COSMOS 2599 (RODNIK-S 24)", "OBJECT_ID": "2025-273C", "EPOCH": "2025-12-27T05:30:07.476480", "MEAN_MOTION": 12.41152438, "ECCENTRICITY": 0.00063593, "INCLINATION": 82.505, "RA_OF_ASC_NODE": 277.4903, "ARG_OF_PERICENTER": 239.7365, "MEAN_ANOMALY": 120.3085, "EPHEMERIS_TYPE": 0, "CLASSIFICATION_TYPE": "U", "NORAD_CAT_ID": 66649, "ELEMENT_SET_NO": 999, "REV_AT_EPOCH": 393, "BSTAR": 0.00019337081, "MEAN_MOTION_DOT": 3.6e-07, "MEAN_MOTION_DDOT": 0}, "tle": {"line1": "1 66649U 25273C   25361.22925320  .00000036  00000+0  19337-3 0  9996", "line2": "2 66649  82.5050 277.4903 0006359 239.7365 120.3085 12.41152438  3938"}}, "geometry": {"type": "Point", "coordinates": [-73.40540767768928, 51.01744635656663]}}, {"type": "Feature", "properties": {"norad_id": 66650, "name": "BEE-1000", "group": "last-30-days", "lat": -1.4229074716134869, "lon": -71.24730550184857, "alt_km": 603.2806389819298, "timestamp": "2025-12-27T15:27:09.829068+00:00", "meta": {"OBJECT_NAME": "BEE-1000", "OBJECT_ID": "2025-274A", "EPOCH": "2025-12-27T07:24:35.032320", "MEAN_MOTION": 14.91711336, "ECCENTRICITY": 0.00112758, "INCLINATION": 97.7406, "RA_OF_ASC_NODE": 288.2301, "ARG_OF_PERICENTER": 198.1775, "MEAN_ANOMALY": 161.9042, "EPHEMERIS_TYPE": 0, "CLASSIFICATION_TYPE": "U", "NORAD_CAT_ID": 66650, "ELEMENT_SET_NO": 999, "REV_AT_EPOCH": 457, "BSTAR": 0.00018294867, "MEAN_MOTION_DOT": 1.787e-05, "MEAN_MOTION_DDOT": 0}, "tle": {"line1": "1 66650U 25274A   25361.30873880  .00001787  00000+0  18295-3 0  9997", "line2": "2 66650  97.7406 288.2301 0011275 198.1775 161.9042 14.91711336  4571"}}, "geometry": {"type": "Point", "coordinates": [-71.24730550184857, -1.4229074716134869]}}, {"type": "Feature", "properties": {"norad_id": 66651, "name": "2025-274B", "group": "last-30-days", "lat": 12.20626382412757, "lon": -73.12258156147561, "alt_km": 601.293340843783, "timestamp": "2025-12-27T15:27:09.829080+00:00", "meta": {"OBJECT_NAME": "2025-274B", "OBJECT_ID": "2025-274B", "EPOCH": "2025-12-27T07:20:56.985504", "MEAN_MOTION": 14.91906236, "ECCENTRICITY": 0.0011476, "INCLINATION": 97.7398, "RA_OF_ASC_NODE": 288.2318, "ARG_OF_PERICENTER": 196.5447, "MEAN_ANOMALY": 163.5399, "EPHEMERIS_TYPE": 0, "CLASSIFICATION_TYPE": "U", "NORAD_CAT_ID": 66651, "ELEMENT_SET_NO": 999, "REV_AT_EPOCH": 457, "BSTAR": 0.00038778804, "MEAN_MOTION_DOT": 3.871e-05, "MEAN_MOTION_DDOT": 0}, "tle": {"line1": "1 66651U 25274B   25361.30621511  .00003871  00000+0  38779-3 0  9995", "line2": "2 66651  97.7398 288.2318 0011476 196.5447 163.5399 14.91906236  4579"}}, "geometry": {"type": "Point", "coordinates": [-73.12258156147561, 12.20626382412757]}}, {"type": "Feature", "properties": {"norad_id": 66652, "name": "2025-274C", "group": "last-30-days", "lat": 24.73057397002239, "lon": -75.02125131231352, "alt_km": 598.7340046634317, "timestamp": "2025-12-27T15:27:09.829091+00:00", "meta": {"OBJECT_NAME": "2025-274C", "OBJECT_ID": "2025-274C", "EPOCH": "2025-12-27T07:17:34.697184", "MEAN_MOTION": 14.9198926, "ECCENTRICITY": 0.00109849, "INCLINATION": 97.7405, "RA_OF_ASC_NODE": 288.2367, "ARG_OF_PERICENTER": 203.156, "MEAN_ANOMALY": 156.9165, "EPHEMERIS_TYPE": 0, "CLASSIFICATION_TYPE": "U", "NORAD_CAT_ID": 66652, "ELEMENT_SET_NO": 999, "REV_AT_EPOCH": 457, "BSTAR": 0.00032243154, "MEAN_MOTION_DOT": 3.215e-05, "MEAN_MOTION_DDOT": 0}, "tle": {"line1": "1 66652U 25274C   25361.30387381  .00003215  00000+0  32243-3 0  9992", "line2": "2 66652  97.7405 288.2367 0010984 203.1560 156.9165 14.91989260  4572"}}, "geometry": {"type": "Point", "coordinates": [-75.02125131231352, 24.73057397002239]}}, {"type": "Feature", "properties": {"norad_id": 66653, "name": "2025-274D", "group": "last-30-days", "lat": 24.982809479256748, "lon": -75.06347550839736, "alt_km": 599.3873573547253, "timestamp": "2025-12-27T15:27:09.829101+00:00", "meta": {"OBJECT_NAME": "2025-274D", "OBJECT_ID": "2025-274D", "EPOCH": "2025-12-27T07:17:30.231168", "MEAN_MOTION": 14.91976029, "ECCENTRICITY": 0.00119792, "INCLINATION": 97.7403, "RA_OF_ASC_NODE": 288.2361, "ARG_OF_PERICENTER": 199.9827, "MEAN_ANOMALY": 160.0924, "EPHEMERIS_TYPE": 0, "CLASSIFICATION_TYPE": "U", "NORAD_CAT_ID": 66653, "ELEMENT_SET_NO": 999, "REV_AT_EPOCH": 457, "BSTAR": 0.00024974181, "MEAN_MOTION_DOT": 2.477e-05, "MEAN_MOTION_DDOT": 0}, "tle": {"line1": "1 66653U 25274D   25361.30382212  .00002477  00000+0  24974-3 0  9992", "line2": "2 66653  97.7403 288.2361 0011979 199.9827 160.0924 14.91976029  4576"}}, "geometry": {"type": "Point", "coordinates": [-75.06347550839736, 24.982809479256748]}}, {"type": "Feature", "properties": {"norad_id": 66654, "name": "JACK E", "group": "last-30-days", "lat": 44.11381426749156, "lon": -78.99843205148383, "alt_km": 595.4443652226119, "timestamp": "2025-12-27T15:27:09.829113+00:00", "meta": {"OBJECT_NAME": "JACK E", "OBJECT_ID": "2025-274E", "EPOCH": "2025-12-27T05:35:47.490720", "MEAN_MOTION": 14.92163064, "ECCENTRICITY": 0.00125123, "INCLINATION": 97.7404, "RA_OF_ASC_NODE": 288.1759, "ARG_OF_PERICENTER": 201.8649, "MEAN_ANOMALY": 158.2038, "EPHEMERIS_TYPE": 0, "CLASSIFICATION_TYPE": "U", "NORAD_CAT_ID": 66654, "ELEMENT_SET_NO": 999, "REV_AT_EPOCH": 456, "BSTAR": 0.00031406796, "MEAN_MOTION_DOT": 3.145e-05, "MEAN_MOTION_DDOT": 0}, "tle": {"line1": "1 66654U 25274E   25361.23318855  .00003145  00000+0  31407-3 0  9999", "line2": "2 66654  97.7404 288.1759 0012512 201.8649 158.2038 14.92163064  4569"}}, "geometry": {"type": "Point", "coordinates": [-78.99843205148383, 44.11381426749156]}}, {"type": "Feature", "properties": {"norad_id": 66655, "name": "2025-274F", "group": "last-30-days", "lat": -2.5405477471214706, "lon": -71.10808102372698, "alt_km": 594.8918994210708, "timestamp": "2025-12-27T15:27:09.829124+00:00", "meta": {"OBJECT_NAME": "2025-274F", "OBJECT_ID": "2025-274F", "EPOCH": "2025-12-27T07:24:43.342272", "MEAN_MOTION": 14.91205821, "ECCENTRICITY": 0.00042448, "INCLINATION": 97.7334, "RA_OF_ASC_NODE": 288.2181, "ARG_OF_PERICENTER": 332.2015, "MEAN_ANOMALY": 27.8976, "EPHEMERIS_TYPE": 0, "CLASSIFICATION_TYPE": "U", "NORAD_CAT_ID": 66655, "ELEMENT_SET_NO": 999, "REV_AT_EPOCH": 457, "BSTAR": -4.2516e-08, "MEAN_MOTION_DOT": -5.5e-07, "MEAN_MOTION_DDOT": 0}, "tle": {"line1": "1 66655U 25274F   25361.30883498 -.00000055  00000+0 -42516-7 0  9994", "line2": "2 66655  97.7334 288.2181 0004244 332.2015  27.8976 14.91205821  4571"}}, "geometry": {"type": "Point", "coordinates": [-71.10808102372698, -2.5405477471214706]}}]}